LUCA-1 (RS90S)
1 67287U 25313AR  26162.93256071  .00007937  00000-0  32561-3 0  9990
2 67287  97.3941 237.9834 0009776  24.4295 335.7404 15.24463604 25172
QMR-KWT-2 (RS95S)
1 67291U 25313AV  26162.70682690  .00012644  00000-0  49145-3 0  9997
2 67291  97.3938 237.9744 0008769  23.1674 336.9958 15.26151310 25156
LOBACHEVSKY (RS83S)
1 67284U 25313AN  26162.77554708  .00006930  00000-0  29856-3 0  9992
2 67284  97.3924 237.5486 0011058  25.9731 334.2058 15.22841407 25130
NASBSAT-1
1 67289U 25313AT  26162.78590315  .00011223  00000-0  44017-3 0  9999
2 67289  97.3937 238.0249 0009213  24.0776 336.0892 15.25877540 25160
NASBSAT-2
1 67285U 25313AP  26162.78302246  .00005593  00000-0  23598-3 0  9993
2 67285  97.3923 237.6777 0010627  28.0928 332.0881 15.23644478 25148
HORS-5
1 67283U 25313AM  26162.70441367  .00005849  00000-0  24501-3 0  9990
2 67283  97.3941 237.6737 0010645  26.6733 333.5050 15.23866461 25131
AIST-2T 2
1 67253U 25313F   26162.73268941  .00029384  00000-0  35060-3 0  9997
2 67253  97.0844 240.3434 0008305 228.7728 131.2815 15.60972226 25771
AIST-2T 1
1 67254U 25313G   26162.95699443  .00027819  00000-0  33265-3 0  9993
2 67254  97.0845 240.4902 0008366 213.9526 146.1198 15.60924023 25796
AIST-ST (RS86S)
1 67267U 25313V   26162.95968119  .00009897  00000-0  41153-3 0  9997
2 67267  97.3945 237.8078 0013985  33.9774 326.2356 15.23895429 25160
KOWSAR 1.5
1 67264U 25313S   26162.79159196  .00005354  00000-0  23498-3 0  9999
2 67264  97.4028 237.5954 0015516  34.3391 325.8845 15.22261883 25126
PAYA
1 67255U 25313H   26162.93303247  .00002315  00000-0  15027-3 0  9996
2 67255  97.2865 231.1289 0068342 353.6555   6.3801 15.07091001 24867
GRIFON-1
1 67281U 25313AK  26162.94244253  .00004661  00000-0  20389-3 0  9990
2 67281  97.3884 237.5527 0012376  26.5914 333.5955 15.22485367 25151
GRIFON-2
1 67272U 25313AA  26162.74981624  .00004554  00000-0  19057-3 0  9999
2 67272  97.3945 237.6254 0014204  29.3794 330.8239 15.23982041 25131
GRIFON-3
1 67280U 25313AJ  26162.75553829  .00004751  00000-0  20827-3 0  9997
2 67280  97.4001 237.5888 0013688  27.3757 332.8198 15.22387702 25125
GRIFON-4
1 67261U 25313P   26162.89944629  .00016424  00000-0  63536-3 0  9997
2 67261  97.3977 238.1130 0013364  24.9065 335.2815 15.26200438 25170
MARAFON
1 67250U 25313C   26162.72458580  .00009037  00000-0  78825-3 0  9992
2 67250  97.6162 233.6400 0150186 355.6694   4.3213 14.88715266 24546
MORSAT (RS96S)
1 67262U 25313Q   26162.76656471  .00013466  00000-0  55864-3 0  9997
2 67262  97.3939 237.6027 0014398  28.0226 332.1783 15.23889368 25138
MARAFON-EXPERIMENTAL
1 67251U 25313D   26162.77035413  .00001400  00000-0  12470-3 0  9994
2 67251  97.5690 233.3231 0148283 345.7270  13.9779 14.89620278 24593
GXIBA-1
1 67684U 98067YA  26162.67906194  .00183997  00000-0  12077-2 0  9996
2 67684  51.6237 316.4946 0009150 221.7066 138.3236 15.74589360 19496
CORAL
1 67685U 98067YB  26162.65605621  .00055551  00000-0  64910-3 0  9994
2 67685  51.6289 321.6279 0011055 189.2620 170.8171 15.60974393 19423
KNACKSAT-2
1 67683U 98067XZ  26162.71234266  .00046941  00000-0  58268-3 0  9994
2 67683  51.6308 322.0071 0009845 191.1847 168.8928 15.59478995 19427
